{"fetched_at":"2026-03-30T13:17:50Z","count":15418,"tles":[{"name":"STARLINK-32818","line1":"1 63036U 25034H   26087.61626620  .00028239  00000+0  96139-3 0  9998","line2":"2 63036  53.1588 170.2777 0001053  80.6553 279.4566 15.30218264 61982","category":"Starlink"}]}